{"dragon": {"capsule": null, "mass_returned_kg": null, "mass_returned_lbs": null, "flight_time_sec": null, "manifest": null, "water_landing": null, "land_landing": null}, "name": "Starlink v0.9", "type": "Satellite", "reused": false, "launch": "5eb87d30ffd86e000604b378", "customers": ["SpaceX"], "norad_ids": [44235, 44236, 44237, 44238, 44239, 44240, 44241, 44242, 44243, 44244, 44245, 44246, 44247, 44248, 44249, 44250, 44251, 44252, 44253, 44254, 44255, 44256, 44257, 44258, 44259, 44260, 44261, 44262, 44263, 44264, 44265, 44266, 44267, 44268, 44269, 44270, 44271, 44272, 44273, 44274, 44275, 44276, 44277, 44278, 44279, 44280, 44281, 44282, 44283, 44284, 44285, 44286, 44287, 44288, 44289, 44290, 44291, 44292, 44293, 44294], "nationalities": ["United States"], "manufacturers": ["SpaceX"], "mass_kg": 13200, "mass_lbs": 29101, "orbit": "VLEO", "reference_system": "geocentric", "regime": "very-low-earth", "longitude": null, "semi_major_axis_km": 6525.788, "eccentricity": 0.0009041, "periapsis_km": 141.753, "apoapsis_km": 153.553, "inclination_deg": 52.9736, "period_min": 87.439, "lifespan_years": null, "epoch": "2020-10-01T07:31:19.000Z", "mean_motion": 16.46847225, "raan": 36.3928, "arg_of_pericenter": 295.9879, "mean_anomaly": 160.3065, "id": "5eb0e4cbb6c3bb0006eeb238"}